{
  "norad_id": 52705,
  "name": "STARLINK-3844",
  "history": [
    {
      "epoch": "2026-03-28T14:57:07.997472Z",
      "apogee_km": 540.7450107063687,
      "perigee_km": 538.7678767601501,
      "latitude_deg": 3.7584915298286656e-06,
      "longitude_deg": -1.2018217417109507,
      "height_km": 540.7589353704109,
      "semi_major_axis_km": 6917.893443733259,
      "eccentricity": 0.0001429,
      "inclination_deg": 53.2177,
      "raan_deg": 49.1223,
      "arg_perigee_deg": 96.2045,
      "mean_anomaly_deg": 263.911,
      "mean_motion_rev_day": 15.08835729
    },
    {
      "epoch": "2026-03-29T03:40:13.164960Z",
      "apogee_km": 540.7431013150363,
      "perigee_km": 538.7687346762395,
      "latitude_deg": -7.165783396457228e-05,
      "longitude_deg": 165.12567702263613,
      "height_km": 540.7483228681789,
      "semi_major_axis_km": 6917.892917995638,
      "eccentricity": 0.0001427,
      "inclination_deg": 53.2174,
      "raan_deg": 46.7437,
      "arg_perigee_deg": 95.6258,
      "mean_anomaly_deg": 264.4896,
      "mean_motion_rev_day": 15.08835901
    },
    {
      "epoch": "2026-03-30T03:30:59.440320Z",
      "apogee_km": 540.7262170053145,
      "perigee_km": 538.7193458827187,
      "latitude_deg": -1.15543488428824e-05,
      "longitude_deg": 161.99378018484524,
      "height_km": 540.6702492174205,
      "semi_major_axis_km": 6917.859781444016,
      "eccentricity": 0.00014505,
      "inclination_deg": 53.2176,
      "raan_deg": 42.2839,
      "arg_perigee_deg": 92.9625,
      "mean_anomaly_deg": 267.1533,
      "mean_motion_rev_day": 15.08846742
    },
    {
      "epoch": "2026-03-30T21:00:14.855616Z",
      "apogee_km": 540.6611596317589,
      "perigee_km": 538.8677628569449,
      "latitude_deg": 3.0467625405632164e-05,
      "longitude_deg": -104.30860897131562,
      "height_km": 540.6799905181903,
      "semi_major_axis_km": 6917.901461244352,
      "eccentricity": 0.00012962,
      "inclination_deg": 53.2167,
      "raan_deg": 39.0139,
      "arg_perigee_deg": 91.2663,
      "mean_anomaly_deg": 268.8478,
      "mean_motion_rev_day": 15.08833106
    },
    {
      "epoch": "2026-03-31T12:54:06.478272Z",
      "apogee_km": 540.6111727660846,
      "perigee_km": 538.9128285614215,
      "latitude_deg": 1.714595194873413e-05,
      "longitude_deg": 13.599593393322468,
      "height_km": 540.6608436828265,
      "semi_major_axis_km": 6917.899000663752,
      "eccentricity": 0.00012275,
      "inclination_deg": 53.2172,
      "raan_deg": 36.0401,
      "arg_perigee_deg": 90.2011,
      "mean_anomaly_deg": 269.9122,
      "mean_motion_rev_day": 15.08833911
    },
    {
      "epoch": "2026-04-01T12:44:53.875968Z",
      "apogee_km": 540.688557469176,
      "perigee_km": 538.8414776304899,
      "latitude_deg": 3.162408026355424e-06,
      "longitude_deg": 10.462652970780185,
      "height_km": 540.6182931467472,
      "semi_major_axis_km": 6917.902017549833,
      "eccentricity": 0.0001335,
      "inclination_deg": 53.2195,
      "raan_deg": 31.58,
      "arg_perigee_deg": 87.3507,
      "mean_anomaly_deg": 272.7638,
      "mean_motion_rev_day": 15.08832924
    }
  ]
}